CSS (TIANHE)            
1 48274U 21035A   23328.02860787  .00043524  00000+0  47701-3 0  9991
2 48274  41.4711 262.6498 0006474 212.6196 147.4244 15.62435382146826
